TEIKYOSAT-4 (OORURI)    
1 49396U 21102B   26068.67534185  .00002438  00000+0  15740-3 0  9994
2 49396  97.3797 101.9931 0010345 276.5421  83.4630 15.09119208237719
STARLINK-3994           
1 52633U 22052AM  26068.82968999  .00000672  00000+0  60296-4 0  9993
2 52633  53.2152 268.4972 0001183  85.3433 274.7694 15.08843770211024
